$$SOE
2459580.500000000, A.D. 2022-Jan-01 00:00:00.0000, 1.615466770277561E+08, 4.837450638136126E+08, -1.591389085787213E+08,
2459587.500000000, A.D. 2022-Jan-08 00:00:00.0000, 1.532590461586860E+08, 4.866044167510368E+08, -1.599441048757503E+08,
2459594.500000000, A.D. 2022-Jan-15 00:00:00.0000, 1.449226882097754E+08, 4.893091820299966E+08, -1.606984887307250E+08,
2459601.500000000, A.D. 2022-Jan-22 00:00:00.0000, 1.365403508001149E+08, 4.918588219309185E+08, -1.614019267796450E+08,
2459608.500000000, A.D. 2022-Jan-29 00:00:00.0000, 1.281147793120560E+08, 4.942528308444903E+08, -1.620542951179865E+08,
2459615.500000000, A.D. 2022-Feb-05 00:00:00.0000, 1.196487149392562E+08, 4.964907342397090E+08, -1.626554790386781E+08,
2459622.500000000, A.D. 2022-Feb-12 00:00:00.0000, 1.111448949163673E+08, 4.985720865912341E+08, -1.632053730644340E+08,
2459629.500000000, A.D. 2022-Feb-19 00:00:00.0000, 1.026060536058813E+08, 5.004964706350038E+08, -1.637038809597399E+08,
2459636.500000000, A.D. 2022-Feb-26 00:00:00.0000, 9.403492313037249E+07, 5.022634972281520E+08, -1.641509156609990E+08,
2459643.500000000, A.D. 2022-Mar-05 00:00:00.0000, 8.543423370853199E+07, 5.038728051957683E+08, -1.645463991897054E+08,
2459650.500000000, A.D. 2022-Mar-12 00:00:00.0000, 7.680671391599879E+07, 5.053240610985854E+08, -1.648902625744351E+08,
2459657.500000000, A.D. 2022-Mar-19 00:00:00.0000, 6.815509094132315E+07, 5.066169589495919E+08, -1.651824457860520E+08,
2459664.500000000, A.D. 2022-Mar-26 00:00:00.0000, 5.948209085878517E+07, 5.077512198736631E+08, -1.654228976888448E+08,
2459671.500000000, A.D. 2022-Apr-02 00:00:00.0000, 5.079043898518930E+07, 5.087265916544597E+08, -1.656115760185485E+08,
2459678.500000000, A.D. 2022-Apr-09 00:00:00.0000, 4.208286059196872E+07, 5.095428481736335E+08, -1.657484474119882E+08,
2459685.500000000, A.D. 2022-Apr-16 00:00:00.0000, 3.336208232907259E+07, 5.101997893968943E+08, -1.658334874680012E+08,
2459692.500000000, A.D. 2022-Apr-23 00:00:00.0000, 2.463083309163876E+07, 5.106972429916552E+08, -1.658666806350388E+08,
2459699.500000000, A.D. 2022-Apr-30 00:00:00.0000, 1.589184245923604E+07, 5.110350653302672E+08, -1.658480199369788E+08,
2459706.500000000, A.D. 2022-May-07 00:00:00.0000, 7.147839768969388E+06, 5.112131399047905E+08, -1.657775069788263E+08,
2459713.500000000, A.D. 2022-May-14 00:00:00.0000, -1.598444789173629E+06, 5.112313761926720E+08, -1.656551521121451E+08,
2459720.500000000, A.D. 2022-May-21 00:00:00.0000, -1.034427908571410E+07, 5.110897097325146E+08, -1.654809745122665E+08,
2459727.500000000, A.D. 2022-May-28 00:00:00.0000, -1.908692845292984E+07, 5.107881024509062E+08, -1.652550022014813E+08,
2459734.500000000, A.D. 2022-Jun-04 00:00:00.0000, -2.782365529748775E+07, 5.103265429274676E+08, -1.649772720690345E+08,
2459741.500000000, A.D. 2022-Jun-11 00:00:00.0000, -3.655171878040148E+07, 5.097050466005284E+08, -1.646478299009811E+08,
2459748.500000000, A.D. 2022-Jun-18 00:00:00.0000, -4.526837452619547E+07, 5.089236559270402E+08, -1.642667304223445E+08,
2459755.500000000, A.D. 2022-Jun-25 00:00:00.0000, -5.397087433241587E+07, 5.079824404639373E+08, -1.638340373569596E+08,
2459762.500000000, A.D. 2022-Jul-02 00:00:00.0000, -6.265646574608127E+07, 5.068814968056179E+08, -1.633498235226216E+08,
2459769.500000000, A.D. 2022-Jul-09 00:00:00.0000, -7.132239111755238E+07, 5.056209485550292E+08, -1.628141709828880E+08,
2459776.500000000, A.D. 2022-Jul-16 00:00:00.0000, -7.996588618775664E+07, 5.042009474120166E+08, -1.622271711622512E+08,
2459783.500000000, A.D. 2022-Jul-23 00:00:00.0000, -8.858418040724678E+07, 5.026216754574757E+08, -1.615889247169682E+08,
2459790.500000000, A.D. 2022-Jul-30 00:00:00.0000, -9.717449890288086E+07, 5.008833452788803E+08, -1.608995414426747E+08,
2459797.500000000, A.D. 2022-Aug-06 00:00:00.0000, -1.057340624945959E+08, 4.989861985850273E+08, -1.601591404953684E+08,
2459804.500000000, A.D. 2022-Aug-13 00:00:00.0000, -1.142600865862011E+08, 4.969305060655079E+08, -1.593678506255333E+08,
2459811.500000000, A.D. 2022-Aug-20 00:00:00.0000, -1.227497804993099E+08, 4.947165679916977E+08, -1.585258103223161E+08,
2459818.500000000, A.D. 2022-Aug-27 00:00:00.0000, -1.312003471825872E+08, 4.923447148320418E+08, -1.576331679325226E+08,
2459825.500000000, A.D. 2022-Sep-03 00:00:00.0000, -1.396089830494353E+08, 4.898153077705600E+08, -1.566900817855414E+08,
2459832.500000000, A.D. 2022-Sep-10 00:00:00.0000, -1.479728778554727E+08, 4.871287391524148E+08, -1.556967203302745E+08,
2459839.500000000, A.D. 2022-Sep-17 00:00:00.0000, -1.562892145878991E+08, 4.842854328552580E+08, -1.546532622871743E+08,
2459846.500000000, A.D. 2022-Sep-24 00:00:00.0000, -1.645551693075656E+08, 4.812858445362802E+08, -1.535598968256439E+08,
2459853.500000000, A.D. 2022-Oct-01 00:00:00.0000, -1.727679107047172E+08, 4.781304617335064E+08, -1.524168237912492E+08,
2459860.500000000, A.D. 2022-Oct-08 00:00:00.0000, -1.809245989619807E+08, 4.748198043441644E+08, -1.512242539780177E+08,
2459867.500000000, A.D. 2022-Oct-15 00:00:00.0000, -1.890223848573344E+08, 4.713544266802557E+08, -1.499824092630879E+08,
2459874.500000000, A.D. 2022-Oct-22 00:00:00.0000, -1.970584112888372E+08, 4.677349194182204E+08, -1.486915225417276E+08,
2459881.500000000, A.D. 2022-Oct-29 00:00:00.0000, -2.050298147234510E+08, 4.639619088484387E+08, -1.473518379032745E+08,
2459888.500000000, A.D. 2022-Nov-05 00:00:00.0000, -2.129337244725563E+08, 4.600360561652538E+08, -1.459636110165259E+08,
2459895.500000000, A.D. 2022-Nov-12 00:00:00.0000, -2.207672617606912E+08, 4.559580580657927E+08, -1.445271094416907E+08,
2459902.500000000, A.D. 2022-Nov-19 00:00:00.0000, -2.285275393077289E+08, 4.517286477040809E+08, -1.430426128812827E+08,
2459909.500000000, A.D. 2022-Nov-26 00:00:00.0000, -2.362116611633375E+08, 4.473485956032017E+08, -1.415104134265167E+08,
2459916.500000000, A.D. 2022-Dec-03 00:00:00.0000, -2.438167226290607E+08, 4.428187105141122E+08, -1.399308158154587E+08,
2459923.500000000, A.D. 2022-Dec-10 00:00:00.0000, -2.513398102239622E+08, 4.381398402400715E+08, -1.383041377057017E+08,
2459930.500000000, A.D. 2022-Dec-17 00:00:00.0000, -2.587780016706070E+08, 4.333128724020125E+08, -1.366307099659865E+08,
2459937.500000000, A.D. 2022-Dec-24 00:00:00.0000, -2.661283657934971E+08, 4.283387350793240E+08, -1.349108770022331E+08,
2459944.500000000, A.D. 2022-Dec-31 00:00:00.0000, -2.733879619738941E+08, 4.232183974337911E+08, -1.331449971419861E+08,
2459951.500000000, A.D. 2023-Jan-07 00:00:00.0000, -2.805538390401397E+08, 4.179528712793484E+08, -1.313334430099222E+08,
2459958.500000000, A.D. 2023-Jan-14 00:00:00.0000, -2.876230355624859E+08, 4.125432140952532E+08, -1.294766016737198E+08,
2459965.500000000, A.D. 2023-Jan-21 00:00:00.0000, -2.945925821981369E+08, 4.069905303107809E+08, -1.275748747603902E+08,
2459972.500000000, A.D. 2023-Jan-28 00:00:00.0000, -3.014595024192744E+08, 4.012959706648726E+08, -1.256286788944319E+08,
2459979.500000000, A.D. 2023-Feb-04 00:00:00.0000, -3.082208118353112E+08, 3.954607326675822E+08, -1.236384461908694E+08,
2459986.500000000, A.D. 2023-Feb-11 00:00:00.0000, -3.148735179073306E+08, 3.894860619702739E+08, -1.216046246546743E+08,
2459993.500000000, A.D. 2023-Feb-18 00:00:00.0000, -3.214146201199911E+08, 3.833732538216563E+08, -1.195276785479730E+08,
2460000.500000000, A.D. 2023-Feb-25 00:00:00.0000, -3.278411103503451E+08, 3.771236544477388E+08, -1.174080887621330E+08,
2460007.500000000, A.D. 2023-Mar-04 00:00:00.0000, -3.341499733339475E+08, 3.707386623745332E+08, -1.152463532024619E+08,
2460014.500000000, A.D. 2023-Mar-11 00:00:00.0000, -3.403381872023267E+08, 3.642197296942309E+08, -1.130429871880683E+08,
2460021.500000000, A.D. 2023-Mar-18 00:00:00.0000, -3.464027240474488E+08, 3.575683632257146E+08, -1.107985238751971E+08,
2460028.500000000, A.D. 2023-Mar-25 00:00:00.0000, -3.523405503125075E+08, 3.507861255225005E+08, -1.085135147263929E+08,
2460035.500000000, A.D. 2023-Apr-01 00:00:00.0000, -3.581486265871624E+08, 3.438746361216317E+08, -1.061885300320119E+08,
2460042.500000000, A.D. 2023-Apr-08 00:00:00.0000, -3.638239074255558E+08, 3.368355742585561E+08, -1.038241593272909E+08,
2460049.500000000, A.D. 2023-Apr-15 00:00:00.0000, -3.693633435271980E+08, 3.296706819424142E+08, -1.014210115809656E+08,
2460056.500000000, A.D. 2023-Apr-22 00:00:00.0000, -3.747638844730090E+08, 3.223817643399838E+08, -9.897971557005522E+07,
2460063.500000000, A.D. 2023-Apr-29 00:00:00.0000, -3.800224792825073E+08, 3.149706897187971E+08, -9.650092050584023E+07,
2460070.500000000, A.D. 2023-May-06 00:00:00.0000, -3.851360765558110E+08, 3.074393907278292E+08, -9.398529660311407E+07,
2460077.500000000, A.D. 2023-May-13 00:00:00.0000, -3.901016251815351E+08, 2.997898661206833E+08, -9.143353557603225E+07,
2460084.500000000, A.D. 2023-May-20 00:00:00.0000, -3.949160753806249E+08, 2.920241824287485E+08, -8.884635112210204E+07,
2460091.500000000, A.D. 2023-May-27 00:00:00.0000, -3.995763798970761E+08, 2.841444755535451E+08, -8.622447941452007E+07,
2460098.500000000, A.D. 2023-Jun-03 00:00:00.0000, -4.040794952823977E+08, 2.761529523031557E+08, -8.356867960611290E+07,
2460105.500000000, A.D. 2023-Jun-10 00:00:00.0000, -4.084223832541594E+08, 2.680518918578588E+08, -8.087973434807749E+07,
2460112.500000000, A.D. 2023-Jun-17 00:00:00.0000, -4.126020120433827E+08, 2.598436471033107E+08, -7.815845033616996E+07,
2460119.500000000, A.D. 2023-Jun-24 00:00:00.0000, -4.166153574144227E+08, 2.515306458847230E+08, -7.540565890842080E+07,
2460126.500000000, A.D. 2023-Jul-01 00:00:00.0000, -4.204594031079159E+08, 2.431153930072693E+08, -7.262221664899175E+07,
2460133.500000000, A.D. 2023-Jul-08 00:00:00.0000, -4.241311423852782E+08, 2.346004738015269E+08, -6.980900577660744E+07,
2460140.500000000, A.D. 2023-Jul-15 00:00:00.0000, -4.276275819566754E+08, 2.259885564215974E+08, -6.696693443107982E+07,
2460147.500000000, A.D. 2023-Jul-22 00:00:00.0000, -4.309457447745566E+08, 2.172823918388373E+08, -6.409693726413234E+07,
$$EOE